YAOGAN-30 03A           
1 43028U 17075A   26068.67863850  .00004172  00000+0  31199-3 0  9991
2 43028  34.9939 156.9097 0001741 176.2032 183.8689 15.02242801452275
STARLINK-6129           
1 57116U 23090R   26068.56469091 -.00000348  00000+0 -10672-4 0  9992
2 57116  43.0033 275.4111 0001149 271.2361  88.8350 15.02533295150398
